BEIDOU-3 M14            
1 43623U 18072B   26129.20348764 -.00000020  00000+0  00000+0 0  9991
2 43623  56.5941  63.9398 0006694 345.6638  14.3071  1.86231536 51926
BEIDOU-3 M16            
1 43647U 18078A   26129.35942515 -.00000037  00000+0  00000+0 0  9991
2 43647  54.1265 301.3466 0007924  39.4697 320.5792  1.86232384 51430
BEIDOU-3 M15            
1 43648U 18078B   26128.95177431 -.00000037  00000+0  00000+0 0  9994
2 43648  54.1224 301.3614 0005073  51.4620 308.5741  1.86232654 51445
BEIDOU-3 G1             
1 43683U 18085A   26131.24744613 -.00000095  00000+0  00000+0 0  9993
2 43683   2.9802  98.3463 0007636 338.2969  41.4595  1.00273083 27698
BEIDOU-3 M17            
1 43706U 18093A   26129.24918965  .00000044  00000+0  00000+0 0  9991
2 43706  54.1671 183.6178 0009134 291.2507 160.2904  1.86228609 50811
BEIDOU-3 M18            
1 43707U 18093B   26131.12349789  .00000065  00000+0  00000+0 0  9997
2 43707  54.1678 183.5463 0007319 322.2688  37.7592  1.86226925 50846
BEIDOU-3 IGSO-1         
1 44204U 19023A   26129.65679304 -.00000217  00000+0  00000+0 0  9998
2 44204  58.6428  38.0490 0024008 234.3721 307.0515  1.00251812  6826
BEIDOU-2 G8             
1 44231U 19027A   26131.13913000 -.00000235  00000+0  00000+0 0  9992
2 44231   1.5638  74.4100 0011011 282.1117  67.0167  1.00274256 25709
BEIDOU-3 IGSO-2         
1 44337U 19035A   26130.52174663 -.00000065  00000+0  00000+0 0  9995
2 44337  55.2384 159.1933 0039671 215.7274 161.0970  1.00278958 25297
BEIDOU-3 M24            
1 44542U 19061A   26131.19261955  .00000065  00000+0  00000+0 0  9996
2 44542  54.3946 183.9757 0008081   3.2774 356.8074  1.86229261 45102
BEIDOU-3 M23            
1 44543U 19061B   26130.23725355  .00000054  00000+0  00000+0 0  9998
2 44543  54.3931 183.9765 0005082 345.3388   6.0609  1.86227724 45082
BEIDOU-3 IGSO-3         
1 44709U 19073A   26120.85038409 -.00000212  00000+0  00000+0 0  9996
2 44709  54.8842 281.4069 0042404 188.8195 170.9972  1.00251230 23982
BEIDOU-3 M22            
1 44793U 19078A   26129.42102106 -.00000037  00000+0  00000+0 0  9997
2 44793  53.9723 301.1911 0007198  47.1122 312.9393  1.86227546 43925
BEIDOU-3 M21            
1 44794U 19078B   26130.09800295 -.00000037  00000+0  00000+0 0  9997
2 44794  53.9450 301.1295 0004992  44.9662 315.0658  1.86228028 43947
BEIDOU-3 M19            
1 44864U 19090A   26128.45489995 -.00000021  00000+0  00000+0 0  9999
2 44864  56.5258  64.1039 0019341 296.1478 239.2902  1.86231845 43492
BEIDOU-3 M20            
1 44865U 19090B   26129.38368757 -.00000020  00000+0  00000+0 0  9994
2 44865  56.5282  64.1078 0017025 308.8996 218.8417  1.86231698 43496
BEIDOU-3 G2             
1 45344U 20017A   26130.55600351 -.00000129  00000+0  00000+0 0  9998
2 45344   2.7884  46.8139 0002772   8.4061  93.3269  1.00270581 22885
BEIDOU-3 G3             
1 45807U 20040A   26131.06107605 -.00000342  00000+0  00000+0 0  9996
2 45807   2.3559  67.3344 0003522 333.3025 320.7031  1.00276936 21696
BEIDOU-3 G4             
1 56564U 23066A   26131.21641904 -.00000272  00000+0  00000+0 0  9993
2 56564   0.5361 322.6869 0003526 160.0477 324.1844  1.00267079 11022
BEIDOU-3 M28            
1 58654U 23207A   26130.17519654 -.00000023  00000+0  00000+0 0  9996
2 58654  55.7207  63.5853 0004296 329.1054  30.8593  1.86229756 16136
BEIDOU-3 M26            
1 58655U 23207B   26130.50964877 -.00000023  00000+0  00000+0 0  9995
2 58655  55.7231  63.5604 0004534 308.9915  50.9578  1.86229738 16129
BEIDOU-3 M25            
1 61186U 24168B   26131.12599016 -.00000038  00000+0  00000+0 0  9999
2 61186  54.5078 303.5304 0003171 314.2754 216.1300  1.86230150 11099
BEIDOU-3 M27            
1 61187U 24168C   26129.05472400 -.00000038  00000+0  00000+0 0  9996
2 61187  54.5049 303.5853 0002347  41.6147 315.1318  1.86230358  8521
